{
  "norad_id": 40748,
  "name": "BEIDOU-3S M2S",
  "history": [
    {
      "epoch": "2026-03-26T15:11:41.766720",
      "apogee_km": 21550.737593003065,
      "perigee_km": 21505.183121555096,
      "latitude_deg": -26.84244503545005,
      "longitude_deg": -76.4202591998037,
      "semi_major_axis_km": 27906.09735727908,
      "eccentricity": 0.00081621,
      "inclination_deg": 54.943,
      "raan_deg": 304.8894,
      "arg_perigee_deg": 277.0076,
      "mean_anomaly_deg": 82.9375,
      "mean_motion_rev_day": 1.86231913
    }
  ]
}